LEMUR-1                 
1 40044U 14033AL  19301.57909648  .00000192  00000-0  35767-4 0  9999
2 40044  97.7365 163.1358 0059976  34.0322 326.4711 14.74136734288011
LEMUR-2-JOEL            
1 40932U 15052C   19301.38820710  .00000934  00000-0  38751-4 0  9998
2 40932   6.0073 181.6534 0014252 254.2514 105.6042 14.77886410220908
LEMUR-2-CHRIS           
1 40933U 15052D   19301.30177607  .00000975  00000-0  44014-4 0  9995
2 40933   6.0050 179.6546 0014950 259.8924  99.9517 14.78037832220915
LEMUR-2-PETER           
1 40935U 15052F   19302.41079850  .00000944  00000-0  41715-4 0  9992
2 40935   6.0032 186.8439 0011062 239.3385 120.5652 14.77176545220929
LEMUR-2-XIAOQING        
1 41871U 16062C   19302.14364885  .00001145  00000-0  57236-4 0  9998
2 41871  51.6395 289.6482 0006671 103.2119 256.9604 15.25986752162739
LEMUR-2-SOKOLSKY        
1 41872U 16062D   19302.53715274  .00001658  00000-0  77230-4 0  9999
2 41872  51.6810 291.9673 0002346 208.1799 151.9054 15.25792565162778
LEMUR-2-ANUBHAVTHAKUR   
1 41873U 16062E   19301.84916840 -.00000183  00000-0  63601-5 0  9996
2 41873  51.6771 304.5749 0003612  38.1580 321.9653 15.23283311162491
LEMUR-2-WINGO           
1 41874U 16062F   19301.95854591  .00001182  00000-0  59557-4 0  9996
2 41874  51.6531 294.5916 0012736  31.3911 328.7825 15.25452021162641
LEMUR-2-JOBANPUTRA      
1 41991U 17008AV  19302.15824835  .00001733  00000-0  73437-4 0  9993
2 41991  97.3889   6.2401 0008762  51.8962 308.3064 15.24464671149397
LEMUR-2-SPIRE-MINIONS   
1 41992U 17008AW  19301.89551111  .00002312  00000-0  93946-4 0  9999
2 41992  97.3912   6.9939 0008465  50.8842 309.3148 15.25544717149412
LEMUR-2-SATCHMO         
1 41993U 17008AX  19301.72477708  .00001724  00000-0  72627-4 0  9990
2 41993  97.3890   6.0451 0008686  52.5166 307.6860 15.24661718149345
LEMUR-2-SMITA-SHARAD    
1 41994U 17008AY  19301.92424638  .00002387  00000-0  97041-4 0  9990
2 41994  97.3908   6.9195 0008499  50.1580 310.0405 15.25499369149419
LEMUR-2-RDEATON         
1 41995U 17008AZ  19302.14934954  .00001608  00000-0  67785-4 0  9990
2 41995  97.3891   6.5666 0009917  61.6504 298.5733 15.24726659150093
LEMUR-2-TACHIKOMA       
1 41996U 17008BA  19301.87107388  .00002476  00000-0  10084-3 0  9996
2 41996  97.3927   6.9783 0009719  62.0959 298.1262 15.25389462149300
LEMUR-2-NOGUECORREIG    
1 41997U 17008BB  19301.83991664  .00002413  00000-0  97719-4 0  9993
2 41997  97.3922   7.1562 0009682  61.4756 298.7455 15.25605731149402
LEMUR-2-MIA-GRACE       
1 41998U 17008BC  19302.39995887  .00001624  00000-0  68658-4 0  9990
2 41998  97.3889   6.6737 0009836  61.6775 298.5453 15.24618979149365
LEMUR-2-ANGELA          
1 42752U 17019B   19302.23477975  .00002995  00000-0  11129-3 0  9999
2 42752  51.6394 211.8502 0009715 191.2938 168.7826 15.30757500133518
LEMUR-2-JENNYBARNA      
1 42753U 17019C   19302.31791863  .00002186  00000-0  81537-4 0  9997
2 42753  51.6393 207.2498 0009069 193.5603 166.5136 15.31968363133531
LEMUR-2-ROBMOORE        
1 42754U 17019D   19302.28594475  .00002727  00000-0  10271-3 0  9991
2 42754  51.6401 212.1677 0009549 193.9005 166.1714 15.30659078133491
LEMUR-2-SPIROVISION     
1 42755U 17019E   19302.28218845  .00004769  00000-0  16341-3 0  9998
2 42755  51.6409 207.5272 0010020 194.9119 247.2993 15.32043555133446
LEMUR-2-SHAINAJOHL      
1 42771U 17036G   19302.23603129  .00002050  00000-0  91464-4 0  9994
2 42771  97.3371 356.4246 0016146 112.9647 247.3295 15.22390681130396
LEMUR-2-XUENITERENCE    
1 42772U 17036H   19302.11553576  .00002012  00000-0  89373-4 0  9996
2 42772  97.3350 356.3381 0015609 112.4699 247.8192 15.22579088130388
LEMUR-2-LUCYBRYCE       
1 42773U 17036J   19302.12150282  .00001191  00000-0  54096-4 0  9996
2 42773  97.3392 356.8170 0015556 111.5362 248.7534 15.22586308130400
LEMUR-2-KUNGFOO         
1 42774U 17036K   19301.83100008  .00002098  00000-0  93160-4 0  9997
2 42774  97.3372 356.2076 0015535 113.2506 247.0368 15.22542190130334
LEMUR-2-LYNSEY-SYMO     
1 42779U 17036Q   19302.39748082  .00002617  00000-0  11092-3 0  9994
2 42779  97.3392 358.1420 0013444 116.7695 243.4919 15.23938708130493
LEMUR-2-LISASAURUS      
1 42780U 17036R   19301.73732829  .00001253  00000-0  56025-4 0  9996
2 42780  97.3383 356.9636 0013523 119.6596 240.5989 15.23066332130377
LEMUR-2-SAM-AMELIA      
1 42781U 17036S   19302.12886381  .00001301  00000-0  57590-4 0  9996
2 42781  97.3396 357.7253 0013568 118.1433 242.1177 15.23332149130446
LEMUR-2-MCPEAKE         
1 42782U 17036T   19302.40839143  .00002030  00000-0  88059-4 0  9996
2 42782  97.3387 357.9617 0013260 117.0542 243.2050 15.23412990130480
LEMUR-2-GREENBERG       
1 42837U 17042N   19302.24064887  .00000884  00000-0  92487-4 0  9996
2 42837  97.5489 190.4774 0012769 341.4281  18.6471 14.91969083124754
LEMUR-2-ANDIS           
1 42838U 17042P   19301.69203826  .00000495  00000-0  54091-4 0  9990
2 42838  97.5489 189.9768 0012807 342.9293  17.1493 14.91964365124670
LEMUR-2-MONSON          
1 42839U 17042Q   19302.12913374  .00000402  00000-0  45153-4 0  9993
2 42839  97.5494 190.3276 0012601 341.2951  18.7804 14.91797858124733
LEMUR-2-FURIAUS         
1 42840U 17042R   19302.25944391  .00000386  00000-0  43424-4 0  9992
2 42840  97.5489 190.5971 0012782 340.9282  19.1457 14.91950088124753
LEMUR-2-PETERG          
1 42841U 17042S   19302.49212079  .00000541  00000-0  58332-4 0  9997
2 42841  97.5502 191.0858 0012234 337.7455  22.3232 14.92193339124811
LEMUR-2-DEMBITZ         
1 42842U 17042T   19302.14711187  .00000390  00000-0  43502-4 0  9999
2 42842  97.5497 190.7535 0012342 339.8054  20.2676 14.92196016124769
LEMUR-2-ZACHARY         
1 42845U 17042W   19301.75752301  .00000553  00000-0  59160-4 0  9999
2 42845  97.5437 190.0977 0012679 344.3345  15.7481 14.92444548124710
LEMUR-2-ARTFISCHER      
1 42881U 17042BJ  19302.22149297  .00005055  00000-0  13059-3 0  9994
2 42881  96.9188 177.4137 0013497  93.5460 266.7330 15.39452595128306
LEMUR-2-ROCKETJONAH     
1 43041U 17071E   19302.47380316  .00007884  00000-0  17409-3 0  9996
2 43041  51.6363 115.3920 0001063 158.7128 201.3903 15.44829930108968
LEMUR-2-YONGLIN         
1 43045U 17071J   19301.93310758  .00006862  00000-0  14903-3 0  9994
2 43045  51.6371 115.5903 0003378 266.8287  93.2313 15.45561244106639
LEMUR-2-KEVIN           
1 43046U 17071K   19302.03577761  .00007534  00000-0  16984-3 0  9994
2 43046  51.6373 118.5244 0003173 263.1224  96.9401 15.44286667106615
LEMUR-2-BRIANDAVIE      
1 43047U 17071L   19302.49738728  .00007863  00000-0  17594-3 0  9990
2 43047  51.6359 117.0155 0002047 313.9452  46.1366 15.44442299106668
LEMUR-2-ROMACOSTE       
1 43048U 17071M   19302.48923970  .00008112  00000-0  17777-3 0  9996
2 43048  51.6369 115.5292 0001975 314.5162  45.5663 15.45014855106688
LEMUR-2-MCCULLAGH       
1 43051U 17071Q   19301.76150495  .00008175  00000-0  17982-3 0  9991
2 43051  51.6375 118.9207 0001583  97.8681 262.2485 15.44893713106524
LEMUR-2-DUNLOP          
1 43053U 17071S   19302.52255617  .00006915  00000-0  15765-3 0  9997
2 43053  51.6356 117.9135 0001412 102.0607 258.0537 15.44090887106614
LEMUR-2-LIU-POU-CHUN    
1 43054U 17071T   19301.85961908  .00006895  00000-0  15453-3 0  9991
2 43054  51.6361 118.7983 0000794 162.9792 197.1222 15.44609370106542
LEMUR-2-MCCAFFERTY      
1 43123U 18004N   19301.87462950  .00002587  00000-0  10776-3 0  9997
2 43123  97.4770   9.7823 0010782 141.4936 218.7072 15.24592688 99650
LEMUR-2-PETERWEBSTER    
1 43124U 18004P   19302.18537444  .00003004  00000-0  12492-3 0  9996
2 43124  97.4773   9.9869 0010875 139.8517 220.3525 15.24518611 99695
LEMUR-2-BROWNCOW        
1 43125U 18004Q   19302.17250956  .00002969  00000-0  12242-3 0  9998
2 43125  97.4775  10.1493 0010678 140.3896 219.8123 15.24818409 99700
LEMUR-2-DAVEWILSON      
1 43126U 18004R   19301.80863174  .00003442  00000-0  14201-3 0  9994
2 43126  97.4777   9.7282 0010713 141.9854 218.2141 15.24685047 99640
LEMUR-2-MARSHALL        
1 43165U 18010C   19302.33658533  .00002271  00000-0  10236-3 0  9997
2 43165  82.9177 253.5968 0032593 130.6082 229.7998 15.19992826 98101
LEMUR-2-TALLHAMN-ATC    
1 43167U 18010E   19301.95427217  .00002236  00000-0  10775-3 0  9998
2 43167  82.9203 255.9831 0025567 142.4086 217.8942 15.17898885 97920
LEMUR-2-JIN-LUEN        
1 43182U 18014C   19302.28095349  .00001013  00000-0  94492-4 0  9994
2 43182  97.6940 207.7783 0012807 287.5844  72.3978 14.96367175 94935
LEMUR-2-URAMCHANSOL     
1 43183U 18014D   19301.79527433  .00000407  00000-0  40961-4 0  9992
2 43183  97.6940 207.3392 0012879 290.2034  69.7802 14.96420741 94866
LEMUR-2-KADI            
1 43184U 18014E   19302.32061885  .00000217  00000-0  24240-4 0  9998
2 43184  97.6943 207.8811 0012760 289.8717  70.1129 14.96440162 94948
LEMUR-2-THENICKMOLO     
1 43185U 18014F   19302.31695659  .00000202  00000-0  22910-4 0  9996
2 43185  97.6950 207.8949 0012538 290.8448  69.1430 14.96430965 94948
LEMUR-2-VU              
1 43558U 18046E   19302.00692392  .00001336  00000-0  57842-4 0  9993
2 43558  51.6404 140.2297 0007585 180.0210 180.0772 15.29873695 71816
LEMUR-2-ALEXANDER       
1 43559U 18046F   19301.92528895  .00001258  00000-0  54999-4 0  9993
2 43559  51.6395 140.4412 0007654 179.4159 180.6832 15.29977435 71582
LEMUR-2-YUASA           
1 43560U 18046G   19302.01414082  .00001757  00000-0  72311-4 0  9990
2 43560  51.6407 140.2702 0007841 193.6206 166.4564 15.29794976 71814
LEMUR-2-TOMHENDERSON    
1 43561U 18046H   19301.81858930  .00001959  00000-0  79336-4 0  9990
2 43561  51.6408 141.2161 0007701 192.8978 167.1807 15.29734760 71349
LEMUR-2-ZUPANSKI        
1 43695U 18088F   19302.30437639  .00002344  00000-0  10468-3 0  9997
2 43695  85.0350 230.7241 0019880  79.0732 281.2744 15.20598022 53463
